start=new Date('2022-06-12T00:00:00.000Z').valueOf();
sats=[{"SEMIMAJOR_AXIS":"6817.848","REV_AT_EPOCH":"6986","BSTAR":"0.00026673000000","DECAY_DATE":null,"APOAPSIS":"441.591","MEAN_MOTION_DDOT":"0.0000000000000","EPHEMERIS_TYPE":"0","MEAN_ELEMENT_THEORY":"SGP4","MEAN_MOTION":"15.42168315","LAUNCH_DATE":"2021-03-14","SITE":"AFETR","CLASSIFICATION_TYPE":"U","OBJECT_NAME":"STARLINK-2350","FILE":"3492149","PERIAPSIS":"437.835","REF_FRAME":"TEME","TIME_SYSTEM":"UTC","ELEMENT_SET_NO":"999","TLE_LINE1":"1 47890U 21021AG  22162.65606185  .00011216  00000-0  26673-3 0  9992","ARG_OF_PERICENTER":"33.7767","OBJECT_ID":"2021-021AG","PERIOD":"93.375","EPOCH":"2022-06-11T15:44:43.743840","TLE_LINE2":"2 47890  53.0532 241.8428 0002755  33.7767 326.3412 15.42168315 69865","ECCENTRICITY":"0.00027550","NORAD_CAT_ID":"47890","MEAN_ANOMALY":"326.3412","RCS_SIZE":"LARGE","RA_OF_ASC_NODE":"241.8428","GP_ID":"205927725","CENTER_NAME":"EARTH","OBJECT_TYPE":"PAYLOAD","COUNTRY_CODE":"US","MEAN_MOTION_DOT":"0.00011216","INCLINATION":"53.0532"},{"BSTAR":"0.00008308700000","REV_AT_EPOCH":"7020","SEMIMAJOR_AXIS":"6925.349","ELEMENT_SET_NO":"999","TIME_SYSTEM":"UTC","REF_FRAME":"TEME","FILE":"3492149","PERIAPSIS":"546.177","CLASSIFICATION_TYPE":"U","SITE":"AFETR","LAUNCH_DATE":"2021-03-14","OBJECT_NAME":"STARLINK-2351","MEAN_MOTION_DDOT":"0.0000000000000","APOAPSIS":"548.251","DECAY_DATE":null,"MEAN_MOTION":"15.06399895","MEAN_ELEMENT_THEORY":"SGP4","EPHEMERIS_TYPE":"0","NORAD_CAT_ID":"47891","MEAN_ANOMALY":"284.5773","ECCENTRICITY":"0.00014970","TLE_LINE2":"2 47891  53.0558 297.5469 0001497  75.5382 284.5773 15.06399895 70200","EPOCH":"2022-06-11T20:43:06.994560","PERIOD":"95.592","OBJECT_ID":"2021-021AH","ARG_OF_PERICENTER":"75.5382","TLE_LINE1":"1 47891U 21021AH  22162.86327540  .00000956  00000-0  83087-4 0  9993","COUNTRY_CODE":"US","INCLINATION":"53.0558","MEAN_MOTION_DOT":"0.00000956","CENTER_NAME":"EARTH","OBJECT_TYPE":"PAYLOAD","GP_ID":"205926476","RA_OF_ASC_NODE":"297.5469","RCS_SIZE":"LARGE"},{"BSTAR":"0.00002871200000","REV_AT_EPOCH":"7015","SEMIMAJOR_AXIS":"6893.367","ELEMENT_SET_NO":"999","TIME_SYSTEM":"UTC","REF_FRAME":"TEME","CLASSIFICATION_TYPE":"U","SITE":"AFETR","LAUNCH_DATE":"2021-03-14","OBJECT_NAME":"STARLINK-2352","FILE":"3492149","PERIAPSIS":"514.008","DECAY_DATE":null,"APOAPSIS":"516.456","MEAN_MOTION_DDOT":"0.0000000000000","EPHEMERIS_TYPE":"0","MEAN_ELEMENT_THEORY":"SGP4","MEAN_MOTION":"15.16895441","ECCENTRICITY":"0.00017760","TLE_LINE2":"2 47892  53.0560 289.5279 0001776  43.9566 316.1568 15.16895441 70154","MEAN_ANOMALY":"316.1568","NORAD_CAT_ID":"47892","OBJECT_ID":"2021-021AJ","ARG_OF_PERICENTER":"43.9566","PERIOD":"94.931","EPOCH":"2022-06-11T20:06:15.016320","TLE_LINE1":"1 47892U 21021AJ  22162.83767380  .00000260  00000-0  28712-4 0  9993","COUNTRY_CODE":"US","MEAN_MOTION_DOT":"0.00000260","INCLINATION":"53.0560","CENTER_NAME":"EARTH","OBJECT_TYPE":"PAYLOAD","RA_OF_ASC_NODE":"289.5279","GP_ID":"205926725","RCS_SIZE":"LARGE"},{"RCS_SIZE":"LARGE","RA_OF_ASC_NODE":"287.7453","GP_ID":"205926977","OBJECT_TYPE":"PAYLOAD","CENTER_NAME":"EARTH","MEAN_MOTION_DOT":"0.00001692","INCLINATION":"53.0564","COUNTRY_CODE":"US","TLE_LINE1":"1 47894U 21021AL  22162.81997535  .00001692  00000-0  13251-3 0  9991","OBJECT_ID":"2021-021AL","ARG_OF_PERICENTER":"65.3773","EPOCH":"2022-06-11T19:40:45.870240","PERIOD":"95.592","TLE_LINE2":"2 47894  53.0564 287.7453 0001637  65.3773 294.7386 15.06395067 70122","ECCENTRICITY":"0.00016370","MEAN_ANOMALY":"294.7386","NORAD_CAT_ID":"47894","EPHEMERIS_TYPE":"0","MEAN_ELEMENT_THEORY":"SGP4","MEAN_MOTION":"15.06395067","APOAPSIS":"548.362","DECAY_DATE":null,"MEAN_MOTION_DDOT":"0.0000000000000","OBJECT_NAME":"STARLINK-2354","SITE":"AFETR","LAUNCH_DATE":"2021-03-14","CLASSIFICATION_TYPE":"U","PERIAPSIS":"546.095","FILE":"3492149","REF_FRAME":"TEME","TIME_SYSTEM":"UTC","ELEMENT_SET_NO":"999","SEMIMAJOR_AXIS":"6925.364","REV_AT_EPOCH":"7012","BSTAR":"0.00013251000000"},{"EPOCH":"2022-06-11T19:56:41.118144","PERIOD":"95.593","ARG_OF_PERICENTER":"74.2239","OBJECT_ID":"2021-021AM","NORAD_CAT_ID":"47895","MEAN_ANOMALY":"285.8910","TLE_LINE2":"2 47895  53.0541 287.6978 0001447  74.2239 285.8910 15.06392359 70152","ECCENTRICITY":"0.00014470","TLE_LINE1":"1 47895U 21021AM  22162.83103146 -.00000299  00000-0 -11691-5 0  9993","CENTER_NAME":"EARTH","OBJECT_TYPE":"PAYLOAD","INCLINATION":"53.0541","MEAN_MOTION_DOT":"-0.00000299","COUNTRY_CODE":"US","RCS_SIZE":"LARGE","GP_ID":"205927226","RA_OF_ASC_NODE":"287.6978","BSTAR":"-0.00000116910000","SEMIMAJOR_AXIS":"6925.372","REV_AT_EPOCH":"7015","REF_FRAME":"TEME","TIME_SYSTEM":"UTC","ELEMENT_SET_NO":"999","MEAN_MOTION":"15.06392359","EPHEMERIS_TYPE":"0","MEAN_ELEMENT_THEORY":"SGP4","MEAN_MOTION_DDOT":"0.0000000000000","APOAPSIS":"548.239","DECAY_DATE":null,"PERIAPSIS":"546.235","FILE":"3492149","SITE":"AFETR","CLASSIFICATION_TYPE":"U","LAUNCH_DATE":"2021-03-14","OBJECT_NAME":"STARLINK-2355"},{"ELEMENT_SET_NO":"999","TIME_SYSTEM":"UTC","REF_FRAME":"TEME","FILE":"3492149","PERIAPSIS":"546.191","LAUNCH_DATE":"2021-03-14","SITE":"AFETR","OBJECT_NAME":"STARLINK-2356","CLASSIFICATION_TYPE":"U","MEAN_MOTION":"15.06388834","EPHEMERIS_TYPE":"0","MEAN_ELEMENT_THEORY":"SGP4","MEAN_MOTION_DDOT":"0.0000000000000","DECAY_DATE":null,"APOAPSIS":"548.305","BSTAR":"0.00001761800000","REV_AT_EPOCH":"6992","SEMIMAJOR_AXIS":"6925.383","MEAN_MOTION_DOT":"-0.00000019","INCLINATION":"53.0548","COUNTRY_CODE":"US","OBJECT_TYPE":"PAYLOAD","CENTER_NAME":"EARTH","GP_ID":"205925977","RA_OF_ASC_NODE":"302.4311","RCS_SIZE":"LARGE","NORAD_CAT_ID":"47896","MEAN_ANOMALY":"291.8459","TLE_LINE2":"2 47896  53.0548 302.4311 0001526  68.2692 291.8459 15.06388834 69922","ECCENTRICITY":"0.00015260","EPOCH":"2022-06-11T21:22:16.936320","PERIOD":"95.593","ARG_OF_PERICENTER":"68.2692","OBJECT_ID":"2021-021AN","TLE_LINE1":"1 47896U 21021AN  22162.89047380 -.00000019  00000-0  17618-4 0  9990"},{"CENTER_NAME":"EARTH","OBJECT_TYPE":"PAYLOAD","COUNTRY_CODE":"US","MEAN_MOTION_DOT":"0.00000264","INCLINATION":"53.0549","RCS_SIZE":"LARGE","RA_OF_ASC_NODE":"287.6769","GP_ID":"205926227","ARG_OF_PERICENTER":"65.6879","OBJECT_ID":"2021-021AP","EPOCH":"2022-06-11T19:55:19.558272","PERIOD":"95.593","ECCENTRICITY":"0.00014560","TLE_LINE2":"2 47897  53.0549 287.6769 0001456  65.6879 294.4262 15.06389724 70185","NORAD_CAT_ID":"47897","MEAN_ANOMALY":"294.4262","TLE_LINE1":"1 47897U 21021AP  22162.83008748  .00000264  00000-0  36606-4 0  9999","REF_FRAME":"TEME","ELEMENT_SET_NO":"999","TIME_SYSTEM":"UTC","APOAPSIS":"548.253","DECAY_DATE":null,"MEAN_MOTION_DDOT":"0.0000000000000","MEAN_ELEMENT_THEORY":"SGP4","EPHEMERIS_TYPE":"0","MEAN_MOTION":"15.06389724","SITE":"AFETR","LAUNCH_DATE":"2021-03-14","OBJECT_NAME":"STARLINK-2357","CLASSIFICATION_TYPE":"U","PERIAPSIS":"546.237","FILE":"3492149","BSTAR":"0.00003660600000","SEMIMAJOR_AXIS":"6925.380","REV_AT_EPOCH":"7018"},{"RA_OF_ASC_NODE":"288.0313","GP_ID":"205895461","RCS_SIZE":"LARGE","INCLINATION":"53.0552","MEAN_MOTION_DOT":"0.00002077","COUNTRY_CODE":"US","OBJECT_TYPE":"PAYLOAD","CENTER_NAME":"EARTH","TLE_LINE1":"1 47898U 21021AQ  22162.75731744  .00002077  00000-0  15830-3 0  9999","ECCENTRICITY":"0.00014170","TLE_LINE2":"2 47898  53.0552 288.0313 0001417  77.1824 282.9323 15.06389979 69680","NORAD_CAT_ID":"47898","MEAN_ANOMALY":"282.9323","ARG_OF_PERICENTER":"77.1824","OBJECT_ID":"2021-021AQ","EPOCH":"2022-06-11T18:10:32.226816","PERIOD":"95.593","SITE":"AFETR","OBJECT_NAME":"STARLINK-2358","LAUNCH_DATE":"2021-03-14","CLASSIFICATION_TYPE":"U","FILE":"3491725","PERIAPSIS":"546.263","EPHEMERIS_TYPE":"0","MEAN_ELEMENT_THEORY":"SGP4","MEAN_MOTION":"15.06389979","DECAY_DATE":null,"APOAPSIS":"548.226","MEAN_MOTION_DDOT":"0.0000000000000","TIME_SYSTEM":"UTC","ELEMENT_SET_NO":"999","REF_FRAME":"TEME","REV_AT_EPOCH":"6968","SEMIMAJOR_AXIS":"6925.379","BSTAR":"0.00015830000000"},{"BSTAR":"0.00009356600000","SEMIMAJOR_AXIS":"6925.387","REV_AT_EPOCH":"7032","REF_FRAME":"TEME","ELEMENT_SET_NO":"999","TIME_SYSTEM":"UTC","MEAN_MOTION":"15.06387474","EPHEMERIS_TYPE":"0","MEAN_ELEMENT_THEORY":"SGP4","MEAN_MOTION_DDOT":"0.0000000000000","DECAY_DATE":null,"APOAPSIS":"548.226","FILE":"3492149","PERIAPSIS":"546.278","LAUNCH_DATE":"2021-03-14","SITE":"AFETR","OBJECT_NAME":"STARLINK-2359","CLASSIFICATION_TYPE":"U","EPOCH":"2022-06-11T19:40:44.173344","PERIOD":"95.593","OBJECT_ID":"2021-021AR","ARG_OF_PERICENTER":"74.2569","NORAD_CAT_ID":"47899","MEAN_ANOMALY":"285.8575","TLE_LINE2":"2 47899  53.0547 277.7273 0001407  74.2569 285.8575 15.06387474 70320","ECCENTRICITY":"0.00014070","TLE_LINE1":"1 47899U 21021AR  22162.81995571  .00001112  00000-0  93566-4 0  9999","OBJECT_TYPE":"PAYLOAD","CENTER_NAME":"EARTH","INCLINATION":"53.0547","MEAN_MOTION_DOT":"0.00001112","COUNTRY_CODE":"US","RCS_SIZE":"LARGE","GP_ID":"205927726","RA_OF_ASC_NODE":"277.7273"},{"CENTER_NAME":"EARTH","OBJECT_TYPE":"PAYLOAD","COUNTRY_CODE":"US","INCLINATION":"53.0549","MEAN_MOTION_DOT":"0.00001252","RCS_SIZE":"LARGE","GP_ID":"205926477","RA_OF_ASC_NODE":"287.9330","EPOCH":"2022-06-11T18:41:00.814560","PERIOD":"95.593","OBJECT_ID":"2021-021AS","ARG_OF_PERICENTER":"61.7380","NORAD_CAT_ID":"47900","MEAN_ANOMALY":"298.3767","ECCENTRICITY":"0.00015700","TLE_LINE2":"2 47900  53.0549 287.9330 0001570  61.7380 298.3767 15.06393352 70172","TLE_LINE1":"1 47900U 21021AS  22162.77848165  .00001252  00000-0  10293-3 0  9993","REF_FRAME":"TEME","ELEMENT_SET_NO":"999","TIME_SYSTEM":"UTC","MEAN_MOTION_DDOT":"0.0000000000000","APOAPSIS":"548.321","DECAY_DATE":null,"MEAN_MOTION":"15.06393352","MEAN_ELEMENT_THEORY":"SGP4","EPHEMERIS_TYPE":"0","FILE":"3492149","PERIAPSIS":"546.147","OBJECT_NAME":"STARLINK-2360","SITE":"AFETR","LAUNCH_DATE":"2021-03-14","CLASSIFICATION_TYPE":"U","BSTAR":"0.00010293000000","SEMIMAJOR_AXIS":"6925.369","REV_AT_EPOCH":"7017"}];
